CCSDS_OMM_VERS = 2.0
CREATION_DATE  = 
ORIGINATOR     = 

OBJECT_NAME    = SL-3 R/B
OBJECT_ID      = 1982-079B
CENTER_NAME    = EARTH
REF_FRAME      = TEME
TIME_SYSTEM    = UTC
MEAN_ELEMENT_THEORY = SGP/SGP4

EPOCH          = 2026-03-27T06:03:30.382272
MEAN_MOTION    = 15.25030662
ECCENTRICITY   = .00255382
INCLINATION    = 81.1483
RA_OF_ASC_NODE = 172.3406
ARG_OF_PERICENTER = 106.9839
MEAN_ANOMALY   = 253.4197

EPHEMERIS_TYPE = 0
CLASSIFICATION_TYPE = U
NORAD_CAT_ID   = 13403
ELEMENT_SET_NO = 999
REV_AT_EPOCH   = 38037
BSTAR          = .23686264E-3
MEAN_MOTION_DOT = .5996E-4
MEAN_MOTION_DDOT = 0

CCSDS_OMM_VERS = 2.0
CREATION_DATE  = 
ORIGINATOR     = 

OBJECT_NAME    = SL-14 R/B
OBJECT_ID      = 1982-092B
CENTER_NAME    = EARTH
REF_FRAME      = TEME
TIME_SYSTEM    = UTC
MEAN_ELEMENT_THEORY = SGP/SGP4

EPOCH          = 2026-03-27T05:05:37.245696
MEAN_MOTION    = 14.86681747
ECCENTRICITY   = .00189546
INCLINATION    = 82.5661
RA_OF_ASC_NODE = 125.0077
ARG_OF_PERICENTER = 240.8474
MEAN_ANOMALY   = 190.1791

EPHEMERIS_TYPE = 0
CLASSIFICATION_TYPE = U
NORAD_CAT_ID   = 13553
ELEMENT_SET_NO = 999
REV_AT_EPOCH   = 33153
BSTAR          = .43937394E-4
MEAN_MOTION_DOT = .416E-5
MEAN_MOTION_DDOT = 0

CCSDS_OMM_VERS = 2.0
CREATION_DATE  = 
ORIGINATOR     = 

OBJECT_NAME    = SL-3 R/B
OBJECT_ID      = 1983-010B
CENTER_NAME    = EARTH
REF_FRAME      = TEME
TIME_SYSTEM    = UTC
MEAN_ELEMENT_THEORY = SGP/SGP4

EPOCH          = 2026-03-27T05:29:35.902464
MEAN_MOTION    = 15.46938369
ECCENTRICITY   = .00161739
INCLINATION    = 81.1053
RA_OF_ASC_NODE = 340.7367
ARG_OF_PERICENTER = 351.6620
MEAN_ANOMALY   = 8.4353

EPHEMERIS_TYPE = 0
CLASSIFICATION_TYPE = U
NORAD_CAT_ID   = 13819
ELEMENT_SET_NO = 999
REV_AT_EPOCH   = 36065
BSTAR          = .28113536E-3
MEAN_MOTION_DOT = .14269E-3
MEAN_MOTION_DDOT = 0

CCSDS_OMM_VERS = 2.0
CREATION_DATE  = 
ORIGINATOR     = 

OBJECT_NAME    = SL-3 R/B
OBJECT_ID      = 1983-075B
CENTER_NAME    = EARTH
REF_FRAME      = TEME
TIME_SYSTEM    = UTC
MEAN_ELEMENT_THEORY = SGP/SGP4

EPOCH          = 2026-03-27T05:55:10.025184
MEAN_MOTION    = 15.38819492
ECCENTRICITY   = .00220847
INCLINATION    = 97.6144
RA_OF_ASC_NODE = 91.4945
ARG_OF_PERICENTER = 161.9101
MEAN_ANOMALY   = 198.2935

EPHEMERIS_TYPE = 0
CLASSIFICATION_TYPE = U
NORAD_CAT_ID   = 14208
ELEMENT_SET_NO = 999
REV_AT_EPOCH   = 33285
BSTAR          = .27286043E-3
MEAN_MOTION_DOT = .10475E-3
MEAN_MOTION_DDOT = 0

CCSDS_OMM_VERS = 2.0
CREATION_DATE  = 
ORIGINATOR     = 

OBJECT_NAME    = COSMOS 1536
OBJECT_ID      = 1984-013A
CENTER_NAME    = EARTH
REF_FRAME      = TEME
TIME_SYSTEM    = UTC
MEAN_ELEMENT_THEORY = SGP/SGP4

EPOCH          = 2026-03-27T06:02:11.157792
MEAN_MOTION    = 15.24055083
ECCENTRICITY   = .00131546
INCLINATION    = 82.5417
RA_OF_ASC_NODE = 90.3853
ARG_OF_PERICENTER = 214.0989
MEAN_ANOMALY   = 145.9405

EPHEMERIS_TYPE = 0
CLASSIFICATION_TYPE = U
NORAD_CAT_ID   = 14699
ELEMENT_SET_NO = 999
REV_AT_EPOCH   = 27529
BSTAR          = .24947693E-3
MEAN_MOTION_DOT = .6097E-4
MEAN_MOTION_DDOT = 0

CCSDS_OMM_VERS = 2.0
CREATION_DATE  = 
ORIGINATOR     = 

OBJECT_NAME    = SL-14 R/B
OBJECT_ID      = 1984-027B
CENTER_NAME    = EARTH
REF_FRAME      = TEME
TIME_SYSTEM    = UTC
MEAN_ELEMENT_THEORY = SGP/SGP4

EPOCH          = 2026-03-26T20:44:17.023488
MEAN_MOTION    = 14.85993908
ECCENTRICITY   = .00164852
INCLINATION    = 82.5412
RA_OF_ASC_NODE = 228.9032
ARG_OF_PERICENTER = 277.2055
MEAN_ANOMALY   = 82.7287

EPHEMERIS_TYPE = 0
CLASSIFICATION_TYPE = U
NORAD_CAT_ID   = 14820
ELEMENT_SET_NO = 999
REV_AT_EPOCH   = 25018
BSTAR          = .6154624E-4
MEAN_MOTION_DOT = .563E-5
MEAN_MOTION_DDOT = 0

CCSDS_OMM_VERS = 2.0
CREATION_DATE  = 
ORIGINATOR     = 

OBJECT_NAME    = SL-8 R/B
OBJECT_ID      = 1985-006B
CENTER_NAME    = EARTH
REF_FRAME      = TEME
TIME_SYSTEM    = UTC
MEAN_ELEMENT_THEORY = SGP/SGP4

EPOCH          = 2026-03-27T07:44:56.972832
MEAN_MOTION    = 14.37795720
ECCENTRICITY   = .00177499
INCLINATION    = 74.0448
RA_OF_ASC_NODE = 228.6990
ARG_OF_PERICENTER = 141.4313
MEAN_ANOMALY   = 237.1852

EPHEMERIS_TYPE = 0
CLASSIFICATION_TYPE = U
NORAD_CAT_ID   = 15483
ELEMENT_SET_NO = 999
REV_AT_EPOCH   = 15656
BSTAR          = .11338497E-3
MEAN_MOTION_DOT = .316E-5
MEAN_MOTION_DDOT = 0

CCSDS_OMM_VERS = 2.0
CREATION_DATE  = 
ORIGINATOR     = 

OBJECT_NAME    = SL-12 R/B(2)
OBJECT_ID      = 1985-042D
CENTER_NAME    = EARTH
REF_FRAME      = TEME
TIME_SYSTEM    = UTC
MEAN_ELEMENT_THEORY = SGP/SGP4

EPOCH          = 2026-03-27T06:55:56.424000
MEAN_MOTION    = 14.21987214
ECCENTRICITY   = .00328561
INCLINATION    = 71.1083
RA_OF_ASC_NODE = 50.5436
ARG_OF_PERICENTER = 98.9794
MEAN_ANOMALY   = 4.4424

EPHEMERIS_TYPE = 0
CLASSIFICATION_TYPE = U
NORAD_CAT_ID   = 15772
ELEMENT_SET_NO = 999
REV_AT_EPOCH   = 11689
BSTAR          = .53545563E-4
MEAN_MOTION_DOT = .72E-6
MEAN_MOTION_DDOT = 0

CCSDS_OMM_VERS = 2.0
CREATION_DATE  = 
ORIGINATOR     = 

OBJECT_NAME    = SL-14 R/B
OBJECT_ID      = 1985-069B
CENTER_NAME    = EARTH
REF_FRAME      = TEME
TIME_SYSTEM    = UTC
MEAN_ELEMENT_THEORY = SGP/SGP4

EPOCH          = 2026-03-27T05:56:27.551040
MEAN_MOTION    = 14.86451660
ECCENTRICITY   = .00199496
INCLINATION    = 82.5305
RA_OF_ASC_NODE = 8.4274
ARG_OF_PERICENTER = 131.0027
MEAN_ANOMALY   = 229.2920

EPHEMERIS_TYPE = 0
CLASSIFICATION_TYPE = U
NORAD_CAT_ID   = 15945
ELEMENT_SET_NO = 999
REV_AT_EPOCH   = 17544
BSTAR          = .53395657E-4
MEAN_MOTION_DOT = .498E-5
MEAN_MOTION_DDOT = 0

CCSDS_OMM_VERS = 2.0
CREATION_DATE  = 
ORIGINATOR     = 

OBJECT_NAME    = SL-16 R/B
OBJECT_ID      = 1985-097B
CENTER_NAME    = EARTH
REF_FRAME      = TEME
TIME_SYSTEM    = UTC
MEAN_ELEMENT_THEORY = SGP/SGP4

EPOCH          = 2026-03-27T06:58:54.782112
MEAN_MOTION    = 14.16603535
ECCENTRICITY   = .00094891
INCLINATION    = 71.0008
RA_OF_ASC_NODE = 103.4970
ARG_OF_PERICENTER = 239.1726
MEAN_ANOMALY   = 203.3796

EPHEMERIS_TYPE = 0
CLASSIFICATION_TYPE = U
NORAD_CAT_ID   = 16182
ELEMENT_SET_NO = 999
REV_AT_EPOCH   = 8972
BSTAR          = .24709063E-4
MEAN_MOTION_DOT = .1E-7
MEAN_MOTION_DDOT = 0

CCSDS_OMM_VERS = 2.0
CREATION_DATE  = 
ORIGINATOR     = 

OBJECT_NAME    = SL-14 R/B
OBJECT_ID      = 1986-006B
CENTER_NAME    = EARTH
REF_FRAME      = TEME
TIME_SYSTEM    = UTC
MEAN_ELEMENT_THEORY = SGP/SGP4

EPOCH          = 2026-03-27T03:40:01.618464
MEAN_MOTION    = 14.86841322
ECCENTRICITY   = .00756773
INCLINATION    = 82.5249
RA_OF_ASC_NODE = 243.2973
ARG_OF_PERICENTER = 213.9013
MEAN_ANOMALY   = 145.7356

EPHEMERIS_TYPE = 0
CLASSIFICATION_TYPE = U
NORAD_CAT_ID   = 16496
ELEMENT_SET_NO = 999
REV_AT_EPOCH   = 15180
BSTAR          = .9311668E-4
MEAN_MOTION_DOT = .901E-5
MEAN_MOTION_DDOT = 0

CCSDS_OMM_VERS = 2.0
CREATION_DATE  = 
ORIGINATOR     = 

OBJECT_NAME    = COSMOS 1743
OBJECT_ID      = 1986-034A
CENTER_NAME    = EARTH
REF_FRAME      = TEME
TIME_SYSTEM    = UTC
MEAN_ELEMENT_THEORY = SGP/SGP4

EPOCH          = 2026-03-27T06:58:25.922784
MEAN_MOTION    = 15.59967674
ECCENTRICITY   = .00039593
INCLINATION    = 82.5301
RA_OF_ASC_NODE = 55.3373
ARG_OF_PERICENTER = 175.9983
MEAN_ANOMALY   = 184.1306

EPHEMERIS_TYPE = 0
CLASSIFICATION_TYPE = U
NORAD_CAT_ID   = 16719
ELEMENT_SET_NO = 999
REV_AT_EPOCH   = 18299
BSTAR          = .52070644E-3
MEAN_MOTION_DOT = .42183E-3
MEAN_MOTION_DDOT = 0

